{
  "type": "FeatureCollection",
  "features": [
    {
      "type": "Feature",
      "properties": {
        "name": "Carrera 1",
        "city": "Cali",
        "source": "OpenStreetMap",
        "license": "ODbL"
      },
      "geometry": {
        "type": "LineString",
        "coordinates": [
          [-76.53850, 3.44820],
          [-76.53720, 3.44980],
          [-76.53590, 3.45140],
          [-76.53460, 3.45300],
          [-76.53330, 3.45460],
          [-76.53200, 3.45620],
          [-76.53070, 3.45780],
          [-76.52940, 3.45940],
          [-76.52810, 3.46100],
          [-76.52680, 3.46260],
          [-76.52550, 3.46420]
        ]
      }
    }
  ]
}
