{
  "type": "FeatureCollection",
  "features": [
    {
      "type": "Feature",
      "properties": {
        "name": "calle79-occidente.geojson",
        "source": "OpenStreetMap",
        "license": "ODbL"
      },
      "geometry": {
        "type": "LineString",
        "coordinates": [
          [
            -74.0642894,
            4.6697288
          ],
          [
            -74.0643909,
            4.6697893
          ],
          [
            -74.0645128,
            4.6698618
          ],
          [
            -74.0645218,
            4.6698754
          ],
          [
            -74.0645309,
            4.6698859
          ],
          [
            -74.0646182,
            4.669941
          ],
          [
            -74.064642,
            4.669956
          ],
          [
            -74.0647174,
            4.6700036
          ],
          [
            -74.0650129,
            4.6701901
          ],
          [
            -74.0655693,
            4.670539
          ],
          [
            -74.0661543,
            4.6708875
          ],
          [
            -74.0661807,
            4.6709038
          ],
          [
            -74.0667064,
            4.6712288
          ],
          [
            -74.0667738,
            4.6712705
          ],
          [
            -74.0673461,
            4.6716079
          ],
          [
            -74.0679376,
            4.6719805
          ],
          [
            -74.0685133,
            4.6723428
          ]
        ]
      }
    }
  ]
}