{
  "type": "FeatureCollection",
  "features": [
    {
      "type": "Feature",
      "properties": {
        "name": "carrera7-norte.geojson",
        "source": "OpenStreetMap",
        "license": "ODbL"
      },
      "geometry": {
        "type": "LineString",
        "coordinates": [
          [
            -74.0552872,
            4.6548585
          ],
          [
            -74.0552671,
            4.654922
          ],
          [
            -74.0552258,
            4.6550526
          ],
          [
            -74.0551887,
            4.6551706
          ],
          [
            -74.0551554,
            4.6552626
          ],
          [
            -74.0551136,
            4.6553642
          ],
          [
            -74.0550542,
            4.6554938
          ],
          [
            -74.0549884,
            4.655626
          ],
          [
            -74.0549394,
            4.6557166
          ],
          [
            -74.0548904,
            4.6557992
          ],
          [
            -74.0547605,
            4.6560075
          ],
          [
            -74.0546794,
            4.6561269
          ],
          [
            -74.0546038,
            4.656237
          ],
          [
            -74.0545093,
            4.6563746
          ],
          [
            -74.0544271,
            4.6564943
          ],
          [
            -74.054257,
            4.6567419
          ],
          [
            -74.0540414,
            4.6570558
          ],
          [
            -74.05389,
            4.6572763
          ],
          [
            -74.0538165,
            4.6573833
          ],
          [
            -74.053422,
            4.6579578
          ],
          [
            -74.0533405,
            4.6580764
          ],
          [
            -74.05319,
            4.6582969
          ],
          [
            -74.0530368,
            4.6584876
          ],
          [
            -74.0529846,
            4.6585467
          ],
          [
            -74.0529358,
            4.658602
          ],
          [
            -74.0528186,
            4.6587274
          ]
        ]
      }
    }
  ]
}