{
  "type": "FeatureCollection",
  "features": [
    {
      "type": "Feature",
      "properties": {
        "name": "carrera15-norte.geojson",
        "source": "OpenStreetMap",
        "license": "ODbL"
      },
      "geometry": {
        "type": "LineString",
        "coordinates": [
          [
            -74.0646453,
            4.6557414
          ],
          [
            -74.0646084,
            4.6558066
          ],
          [
            -74.0641213,
            4.6565859
          ],
          [
            -74.0640879,
            4.6566394
          ],
          [
            -74.0640644,
            4.6566769
          ],
          [
            -74.0637977,
            4.6571037
          ],
          [
            -74.0636288,
            4.6573741
          ],
          [
            -74.0635949,
            4.6574556
          ],
          [
            -74.0635797,
            4.6575194
          ],
          [
            -74.0633895,
            4.6586409
          ]
        ]
      }
    }
  ]
}