{
  "type": "FeatureCollection",
  "features": [
    {
      "type": "Feature",
      "properties": {
        "name": "Avenida Oriental",
        "city": "Medellín",
        "source": "OpenStreetMap",
        "license": "ODbL"
      },
      "geometry": {
        "type": "LineString",
        "coordinates": [
          [-75.58120, 6.24410],
          [-75.58045, 6.24580],
          [-75.57970, 6.24750],
          [-75.57895, 6.24920],
          [-75.57820, 6.25090],
          [-75.57745, 6.25260],
          [-75.57670, 6.25430],
          [-75.57595, 6.25600],
          [-75.57520, 6.25770],
          [-75.57445, 6.25940],
          [-75.57370, 6.26110],
          [-75.57295, 6.26280]
        ]
      }
    }
  ]
}
