{
  "type": "FeatureCollection",
  "features": [
    {
      "type": "Feature",
      "properties": {
        "name": "Carrera 14",
        "city": "Pereira",
        "source": "OpenStreetMap",
        "license": "ODbL"
      },
      "geometry": {
        "type": "LineString",
        "coordinates": [
          [-75.70200, 4.80800],
          [-75.70080, 4.81000],
          [-75.69960, 4.81200],
          [-75.69840, 4.81400],
          [-75.69720, 4.81600],
          [-75.69600, 4.81800],
          [-75.69480, 4.82000],
          [-75.69360, 4.82200],
          [-75.69240, 4.82400],
          [-75.69120, 4.82600],
          [-75.69000, 4.82800]
        ]
      }
    }
  ]
}
